{
    "links": {
        "self": "http://www.neowsapp.com/rest/v1/neo/3989160?api_key=iIulBulltgU6a56xZRHN4H3l9WmuAYTsLGpBGhQ2"
    },
    "id": "3989160",
    "neo_reference_id": "3989160",
    "name": "(2020 BB7)",
    "designation": "2020 BB7",
    "nasa_jpl_url": "http://ssd.jpl.nasa.gov/sbdb.cgi?sstr=3989160",
    "absolute_magnitude_h": 24.859,
    "estimated_diameter": {
        "kilometers": {
            "estimated_diameter_min": 0.0283631836,
            "estimated_diameter_max": 0.0634220066
        },
        "meters": {
            "estimated_diameter_min": 28.3631836239,
            "estimated_diameter_max": 63.4220066415
        },
        "miles": {
            "estimated_diameter_min": 0.0176240598,
            "estimated_diameter_max": 0.0394085957
        },
        "feet": {
            "estimated_diameter_min": 93.0550673608,
            "estimated_diameter_max": 208.0774562696
        }
    },
    "is_potentially_hazardous_asteroid": false,
    "close_approach_data": [
        {
            "close_approach_date": "2020-01-10",
            "close_approach_date_full": "2020-Jan-10 20:49",
            "epoch_date_close_approach": 1578689340000,
            "relative_velocity": {
                "kilometers_per_second": "6.1062884246",
                "kilometers_per_hour": "21982.6383287221",
                "miles_per_hour": "13659.1565770884"
            },
            "miss_distance": {
                "astronomical": "0.1275747739",
                "lunar": "49.6265870471",
                "kilometers": "19084914.441171593",
                "miles": "11858815.9331422634"
            },
            "orbiting_body": "Earth"
        }
    ],
    "orbital_data": {
        "orbit_id": "1",
        "orbit_determination_date": "2020-01-25 07:12:04",
        "first_observation_date": "2020-01-23",
        "last_observation_date": "2020-01-25",
        "data_arc_in_days": 2,
        "observations_used": 22,
        "orbit_uncertainty": "9",
        "minimum_orbit_intersection": ".117243",
        "jupiter_tisserand_invariant": "3.177",
        "epoch_osculation": "2458872.5",
        "eccentricity": ".5745683437273289",
        "semi_major_axis": "2.558264409178524",
        "inclination": "4.955456950343946",
        "ascending_node_longitude": "329.8517123128274",
        "orbital_period": "1494.571065797393",
        "perihelion_distance": "1.088366664780246",
        "perihelion_argument": "141.239013644673",
        "aphelion_distance": "4.028162153576803",
        "perihelion_time": "2458858.235041736626",
        "mean_anomaly": "3.436025955764623",
        "mean_motion": ".2408717847136499",
        "equinox": "J2000",
        "orbit_class": {
            "orbit_class_type": "AMO",
            "orbit_class_description": "Near-Earth asteroid orbits similar to that of 1221 Amor",
            "orbit_class_range": "1.017 AU < q (perihelion) < 1.3 AU"
        }
    },
    "is_sentry_object": false
}